CCSDS_OMM_VERS,COMMENT,CREATION_DATE,ORIGINATOR,OBJECT_NAME,OBJECT_ID,CENTER_NAME,REF_FRAME,TIME_SYSTEM,MEAN_ELEMENT_THEORY,EPOCH,MEAN_MOTION,ECCENTRICITY,INCLINATION,RA_OF_ASC_NODE,ARG_OF_PERICENTER,MEAN_ANOMALY,EPHEMERIS_TYPE,CLASSIFICATION_TYPE,NORAD_CAT_ID,ELEMENT_SET_NO,REV_AT_EPOCH,BSTAR,MEAN_MOTION_DOT,MEAN_MOTION_DDOT,SEMIMAJOR_AXIS,PERIOD,APOAPSIS,PERIAPSIS,OBJECT_TYPE,RCS_SIZE,COUNTRY_CODE,LAUNCH_DATE,SITE,DECAY_DATE,FILE,GP_ID,TLE_LINE0,TLE_LINE1,TLE_LINE2
"2.0","GENERATED VIA SPACE-TRACK.ORG API","2012-08-20T16:45:52","18 SPCS","BLITS","2009-049G","EARTH","TEME","UTC","SGP4","2012-08-20T16:18:38.775744","14.21585938","0.00029600","98.6396","285.8600","201.7207","158.3842","0","U","35871","999","15112","0.00001349800000","-0.00000014","0.0000000000000","7198.135","101.295","822.131","817.870","PAYLOAD","SMALL","CIS","2009-09-17","TTMTR","","1337894","90177705","0 BLITS","1 35871U 09049G   12233.67961546 -.00000014  00000-0  13498-4 0  9996","2 35871 098.6396 285.8600 0002960 201.7207 158.3842 14.21585938151129"
"2.0","GENERATED VIA SPACE-TRACK.ORG API","2012-08-21T16:45:31","18 SPCS","BLITS","2009-049G","EARTH","TEME","UTC","SGP4","2012-08-21T17:38:56.126111","14.21586173","0.00030710","98.6396","286.8933","199.6764","160.4295","0","U","35871","999","15127","0.00001980100000","0.00000000","0.0000000000000","7198.135","101.295","822.210","817.789","PAYLOAD","SMALL","CIS","2009-09-17","TTMTR","","1338655","90193536","0 BLITS","1 35871U 09049G   12234.73537183  .00000000  00000-0  19801-4 0  9998","2 35871 098.6396 286.8933 0003071 199.6764 160.4295 14.21586173151270"
"2.0","GENERATED VIA SPACE-TRACK.ORG API","2012-08-22T01:05:31","18 SPCS","BLITS","2009-049G","EARTH","TEME","UTC","SGP4","2012-08-22T02:05:41.919072","14.21586421","0.00031280","98.6398","287.2385","199.3276","160.7817","0","U","35871","999","15132","0.00002713100000","0.00000016","0.0000000000000","7198.134","101.295","822.250","817.747","PAYLOAD","SMALL","CIS","2009-09-17","TTMTR","","1338789","90196118","0 BLITS","1 35871U 09049G   12235.08729073  .00000016  00000-0  27131-4 0  9990","2 35871 098.6398 287.2385 0003128 199.3276 160.7817 14.21586421151321"
"2.0","GENERATED VIA SPACE-TRACK.ORG API","2012-08-22T16:47:17","18 SPCS","BLITS","2009-049G","EARTH","TEME","UTC","SGP4","2012-08-22T17:17:52.302335","14.21586220","0.00031890","98.6395","287.8585","197.7740","162.3313","0","U","35871","999","15141","0.00001858900000","-0.00000002","0.0000000000000","7198.134","101.295","822.295","817.704","PAYLOAD","SMALL","CIS","2009-09-17","TTMTR","","1339077","90209308","0 BLITS","1 35871U 09049G   12235.72074424 -.00000002  00000-0  18589-4 0  9997","2 35871 098.6395 287.8585 0003189 197.7740 162.3313 14.21586220151417"
"2.0","GENERATED VIA SPACE-TRACK.ORG API","2012-08-23T00:47:42","18 SPCS","BLITS","2009-049G","EARTH","TEME","UTC","SGP4","2012-08-23T01:44:38.116896","14.21586335","0.00032280","98.6395","288.2029","197.2216","162.8868","0","U","35871","999","15146","0.00002125300000","0.00000003","0.0000000000000","7198.134","101.295","822.323","817.675","PAYLOAD","SMALL","CIS","2009-09-17","TTMTR","","1339228","90212151","0 BLITS","1 35871U 09049G   12236.07266339  .00000003  00000-0  21253-4 0  9996","2 35871 098.6395 288.2029 0003228 197.2216 162.8868 14.21586335151464"
"2.0","GENERATED VIA SPACE-TRACK.ORG API","2012-08-23T05:24:30","18 SPCS","BLITS","2009-049G","EARTH","TEME","UTC","SGP4","2012-08-23T03:25:59.249568","14.21586277","0.00031520","98.6397","288.2725","196.4436","163.6626","0","U","35871","999","15147","0.00001921300000","-0.00000001","0.0000000000000","7198.134","101.295","822.268","817.730","PAYLOAD","SMALL","CIS","2009-09-17","TTMTR","","1339328","90214374","0 BLITS","1 35871U 09049G   12236.14304687 -.00000001  00000-0  19213-4 0  9995","2 35871 098.6397 288.2725 0003152 196.4436 163.6626 14.21586277151477"
"2.0","GENERATED VIA SPACE-TRACK.ORG API","2012-08-23T10:25:52","18 SPCS","BLITS","2009-049G","EARTH","TEME","UTC","SGP4","2012-08-23T15:15:27.393407","14.21586169","0.00031840","98.6395","288.7547","195.2786","164.8292","0","U","35871","999","15154","0.00001388500000","-0.00000013","0.0000000000000","7198.135","101.295","822.291","817.708","PAYLOAD","SMALL","CIS","2009-09-17","TTMTR","","1339444","90223793","0 BLITS","1 35871U 09049G   12236.63573372 -.00000013  00000-0  13885-4 0  9990","2 35871 098.6395 288.7547 0003184 195.2786 164.8292 14.21586169151542"
"2.0","GENERATED VIA SPACE-TRACK.ORG API","2012-08-23T16:54:41","18 SPCS","BLITS","2009-049G","EARTH","TEME","UTC","SGP4","2012-08-23T16:56:48.558912","14.21586173","0.00032280","98.6393","288.8233","195.4867","164.6218","0","U","35871","999","15155","0.00001342500000","-0.00000014","0.0000000000000","7198.135","101.295","822.323","817.676","PAYLOAD","SMALL","CIS","2009-09-17","TTMTR","","1339561","90225392","0 BLITS","1 35871U 09049G   12236.70611758 -.00000014  00000-0  13425-4 0  9990","2 35871 098.6393 288.8233 0003228 195.4867 164.6218 14.21586173151556"
"2.0","GENERATED VIA SPACE-TRACK.ORG API","2012-08-24T00:55:44","18 SPCS","BLITS","2009-049G","EARTH","TEME","UTC","SGP4","2012-08-24T01:23:34.344096","14.21586158","0.00032650","98.6394","289.1677","194.5077","165.6009","0","U","35871","999","15160","0.00001214800000","-0.00000017","0.0000000000000","7198.135","101.295","822.350","817.649","PAYLOAD","SMALL","CIS","2009-09-17","TTMTR","","1339715","90228044","0 BLITS","1 35871U 09049G   12237.05803639 -.00000017  00000-0  12148-4 0  9994","2 35871 098.6394 289.1677 0003265 194.5077 165.6009 14.21586158151605"
"2.0","GENERATED VIA SPACE-TRACK.ORG API","2012-08-24T17:45:03","18 SPCS","BLITS","2009-049G","EARTH","TEME","UTC","SGP4","2012-08-24T14:54:23.585183","14.21586152","0.00032660","98.6397","289.7198","193.3666","166.7419","0","U","35871","999","15168","0.00000929470000","-0.00000023","0.0000000000000","7198.135","101.295","822.351","817.649","PAYLOAD","SMALL","CIS","2009-09-17","TTMTR","","1339977","90240834","0 BLITS","1 35871U 09049G   12237.62110631 -.00000023  00000-0  92947-5 0  9993","2 35871 098.6397 289.7198 0003266 193.3666 166.7419 14.21586152151683"
"2.0","GENERATED VIA SPACE-TRACK.ORG API","2012-08-24T20:23:37","18 SPCS","BLITS","2009-049G","EARTH","TEME","UTC","SGP4","2012-08-25T01:02:30.550560","14.21586271","0.00033120","98.6400","290.1335","192.3359","167.7750","0","U","35871","999","15174","0.00001387800000","-0.00000013","0.0000000000000","7198.134","101.295","822.383","817.615","PAYLOAD","SMALL","CIS","2009-09-17","TTMTR","","1340066","90241811","0 BLITS","1 35871U 09049G   12238.04340915 -.00000013  00000-0  13878-4 0  9994","2 35871 098.6400 290.1335 0003312 192.3359 167.7750 14.21586271151745"
"2.0","GENERATED VIA SPACE-TRACK.ORG API","2012-08-25T08:55:40","18 SPCS","BLITS","2009-049G","EARTH","TEME","UTC","SGP4","2012-08-25T02:43:51.689280","14.21586360","0.00032940","98.6394","290.2020","192.9436","167.1668","0","U","35871","999","15175","0.00001567800000","-0.00000009","0.0000000000000","7198.134","101.295","822.370","817.628","PAYLOAD","SMALL","CIS","2009-09-17","TTMTR","","1340280","90245731","0 BLITS","1 35871U 09049G   12238.11379270 -.00000009  00000-0  15678-4 0  9993","2 35871 098.6394 290.2020 0003294 192.9436 167.1668 14.21586360151752"
"2.0","GENERATED VIA SPACE-TRACK.ORG API","2012-08-25T19:56:16","18 SPCS","BLITS","2009-049G","EARTH","TEME","UTC","SGP4","2012-08-25T14:33:19.779552","14.21586310","0.00032700","98.6398","290.6846","191.2055","168.9043","0","U","35871","999","15182","0.00001261300000","-0.00000016","0.0000000000000","7198.134","101.295","822.353","817.645","PAYLOAD","SMALL","CIS","2009-09-17","TTMTR","","1340398","90256584","0 BLITS","1 35871U 09049G   12238.60647893 -.00000016  00000-0  12613-4 0  9990","2 35871 098.6398 290.6846 0003270 191.2055 168.9043 14.21586310151828"
"2.0","GENERATED VIA SPACE-TRACK.ORG API","2012-08-25T21:58:47","18 SPCS","BLITS","2009-049G","EARTH","TEME","UTC","SGP4","2012-08-26T02:22:47.901791","14.21586346","0.00032840","98.6393","291.1664","189.7741","170.3373","0","U","35871","999","15189","0.00001302100000","-0.00000015","0.0000000000000","7198.134","101.295","822.363","817.635","PAYLOAD","SMALL","CIS","2009-09-17","TTMTR","","1340453","90257464","0 BLITS","1 35871U 09049G   12239.09916553 -.00000015  00000-0  13021-4 0  9999","2 35871 098.6393 291.1664 0003284 189.7741 170.3373 14.21586346151895"
"2.0","GENERATED VIA SPACE-TRACK.ORG API","2012-08-26T16:46:11","18 SPCS","BLITS","2009-049G","EARTH","TEME","UTC","SGP4","2012-08-26T14:12:16.010207","14.21586579","0.00033540","98.6391","291.6488","188.7701","171.3442","0","U","35871","999","15196","0.00002024100000","0.00000001","0.0000000000000","7198.133","101.295","822.412","817.584","PAYLOAD","SMALL","CIS","2009-09-17","TTMTR","","1340778","90273002","0 BLITS","1 35871U 09049G   12239.59185197  .00000001  00000-0  20241-4 0  9992","2 35871 098.6391 291.6488 0003354 188.7701 171.3442 14.21586579151969"
"2.0","GENERATED VIA SPACE-TRACK.ORG API","2012-08-27T00:52:51","18 SPCS","BLITS","2009-049G","EARTH","TEME","UTC","SGP4","2012-08-27T03:43:05.230560","14.21586596","0.00033860","98.6394","292.2001","187.0710","173.0421","0","U","35871","999","15204","0.00001963100000","0.00000000","0.0000000000000","7198.133","101.295","822.435","817.561","PAYLOAD","SMALL","CIS","2009-09-17","TTMTR","","1340883","90275372","0 BLITS","1 35871U 09049G   12240.15492165 -.00000000  00000-0  19631-4 0  9993","2 35871 098.6394 292.2001 0003386 187.0710 173.0421 14.21586596152042"
